ONEWEB-0706             
1 61611U 24188T   25312.08086813 -.00000711  00000+0 -20731-2 0  9990
2 61611  87.8785  80.3453 0001844  78.4158 281.7176 13.10372820 54427
ONEWEB-0707             
1 61612U 24188U   25311.85843978 -.00000429  00000+0 -12661-2 0  9997
2 61612  87.8805  80.3628 0001899  81.3878 278.7464 13.10375577 54335
ONEWEB-0708             
1 61613U 24188V   25312.10578615  .00000192  00000+0  51244-3 0  9996
2 61613  87.8790  80.3531 0001130  80.3073 279.8182 13.10373724 54348
